ORBCOMM FM24            
1 25478U 98053D   24339.66715255  .00003251  00000+0  11314-2 0  9991
2 25478  45.0067 110.7652 0001742 268.6494  91.4155 14.37104914369451
ORBCOMM FM25            
1 25479U 98053E   24339.91379819  .00003917  00000+0  13535-2 0  9998
2 25479  45.0058 107.8512 0002997 325.0133  35.0518 14.37094906369787
ORBCOMM FM26            
1 25480U 98053F   24339.94581472  .00003375  00000+0  11916-2 0  9992
2 25480  45.0056 102.8563 0004353   1.6104 358.4757 14.36306537369716
ORBCOMM FM27            
1 25481U 98053G   24339.62533380  .00003553  00000+0  12323-2 0  9994
2 25481  45.0041 109.4681 0001721 215.2348 144.8386 14.37087883369675
ORBCOMM FM28            
1 25482U 98053H   24339.90400473  .00002934  00000+0  10197-2 0  9991
2 25482  45.0062  46.0072 0002406  14.3262 345.7654 14.37395012370390
ORBCOMM FM30            
1 25980U 99065A   24339.60921850  .00002935  00000+0  10392-2 0  9990
2 25980  45.0318 290.1779 0004900 103.4833 256.6561 14.36465414306993
ORBCOMM FM31            
1 25981U 99065B   24339.92462200  .00002775  00000+0  98590-3 0  9994
2 25981  45.0229 282.2534 0002115 135.3302 224.7716 14.36440277306063
